{"type": "FeatureCollection", "features": [ {"type": "Feature", "properties": {"norad_id": 31630, "name": "FENGYUN 1C DEB", "group": "fengyun-1c-debris", "lat": 6.564592035983056, "lon": -15.211018455694802, "alt_km": 649.7609388896099, "timestamp": "2025-12-21T20:41:08.243541+00:00", "meta": {"OBJECT_NAME": "FENGYUN 1C DEB", "OBJECT_ID": "1999-025CAL", "EPOCH": "2025-12-14T04:35:18.006432", "MEAN_MOTION": 15.0634372, "ECCENTRICITY": 0.01649676, "INCLINATION": 98.0909, "RA_OF_ASC_NODE": 155.7947, "ARG_OF_PERICENTER": 351.7754, "MEAN_ANOMALY": 8.0772, "EPHEMERIS_TYPE": 0, "CLASSIFICATION_TYPE": "U", "NORAD_CAT_ID": 31630, "ELEMENT_SET_NO": 999, "REV_AT_EPOCH": 98612, "BSTAR": 0.00070852391, "MEAN_MOTION_DOT": 0.00014158, "MEAN_MOTION_DDOT": 0}, "tle": {"line1": "1 31630U 99025CAL 25348.19118063  .00014158  00000+0  70852-3 0  9992", "line2": "2 31630  98.0909 155.7947 0164967 351.7754   8.0772 15.06343720986124"}}, "geometry": {"type": "Point", "coordinates": [-15.211018455694802, 6.564592035983056]}}, {"type": "Feature", "properties": {"norad_id": 31631, "name": "FENGYUN 1C DEB", "group": "fengyun-1c-debris", "lat": 51.81946667981368, "lon": 100.11329558702448, "alt_km": 690.7998016125875, "timestamp": "2025-12-21T20:41:08.243550+00:00", "meta": {"OBJECT_NAME": "FENGYUN 1C DEB", "OBJECT_ID": "1999-025CAM", "EPOCH": "2025-12-21T00:32:00.662496", "MEAN_MOTION": 14.7215905, "ECCENTRICITY": 0.00592686, "INCLINATION": 99.3467, "RA_OF_ASC_NODE": 267.0593, "ARG_OF_PERICENTER": 307.4377, "MEAN_ANOMALY": 52.1442, "EPHEMERIS_TYPE": 0, "CLASSIFICATION_TYPE": "U", "NORAD_CAT_ID": 31631, "ELEMENT_SET_NO": 999, "REV_AT_EPOCH": 64094, "BSTAR": 0.0049253924, "MEAN_MOTION_DOT": 0.00031974, "MEAN_MOTION_DDOT": 0}, "tle": {"line1": "1 31631U 99025CAM 25355.02222989  .00031974  00000+0  49254-2 0  9992", "line2": "2 31631  99.3467 267.0593 0059268 307.4377  52.1442 14.72159050640942"}}, "geometry": {"type": "Point", "coordinates": [100.11329558702448, 51.81946667981368]}}, {"type": "Feature", "properties": {"norad_id": 31634, "name": "FENGYUN 1C DEB", "group": "fengyun-1c-debris", "lat": -46.07098485045703, "lon": -147.37824631923698, "alt_km": 922.5277218959873, "timestamp": "2025-12-21T20:41:08.243558+00:00", "meta": {"OBJECT_NAME": "FENGYUN 1C DEB", "OBJECT_ID": "1999-025CAQ", "EPOCH": "2025-12-17T20:54:46.786176", "MEAN_MOTION": 13.94677319, "ECCENTRICITY": 0.00920361, "INCLINATION": 99.3665, "RA_OF_ASC_NODE": 38.4397, "ARG_OF_PERICENTER": 144.0195, "MEAN_ANOMALY": 216.7209, "EPHEMERIS_TYPE": 0, "CLASSIFICATION_TYPE": "U", "NORAD_CAT_ID": 31634, "ELEMENT_SET_NO": 999, "REV_AT_EPOCH": 56595, "BSTAR": 0.00024519173, "MEAN_MOTION_DOT": 2.94e-06, "MEAN_MOTION_DDOT": 0}, "tle": {"line1": "1 31634U 99025CAQ 25351.87137484  .00000294  00000+0  24519-3 0  9998", "line2": "2 31634  99.3665  38.4397 0092036 144.0195 216.7209 13.94677319565952"}}, "geometry": {"type": "Point", "coordinates": [-147.37824631923698, -46.07098485045703]}}, {"type": "Feature", "properties": {"norad_id": 31639, "name": "FENGYUN 1C DEB", "group": "fengyun-1c-debris", "lat": 31.878582498478927, "lon": 126.67988626420215, "alt_km": 837.7901371860607, "timestamp": "2025-12-21T20:41:08.243568+00:00", "meta": {"OBJECT_NAME": "FENGYUN 1C DEB", "OBJECT_ID": "1999-025CAV", "EPOCH": "2025-12-17T14:33:04.588704", "MEAN_MOTION": 13.85164921, "ECCENTRICITY": 0.01618732, "INCLINATION": 98.7438, "RA_OF_ASC_NODE": 297.218, "ARG_OF_PERICENTER": 132.0188, "MEAN_ANOMALY": 45.3682, "EPHEMERIS_TYPE": 0, "CLASSIFICATION_TYPE": "U", "NORAD_CAT_ID": 31639, "ELEMENT_SET_NO": 999, "REV_AT_EPOCH": 93755, "BSTAR": 9.8807532e-05, "MEAN_MOTION_DOT": 8.5e-07, "MEAN_MOTION_DDOT": 0}, "tle": {"line1": "1 31639U 99025CAV 25351.60630311  .00000085  00000+0  98808-4 0  9992", "line2": "2 31639  98.7438 297.2180 0161873 132.0188  45.3682 13.85164921937558"}}, "geometry": {"type": "Point", "coordinates": [126.67988626420215, 31.878582498478927]}}, {"type": "Feature", "properties": {"norad_id": 31642, "name": "FENGYUN 1C DEB", "group": "fengyun-1c-debris", "lat": 68.88276404255836, "lon": -79.30495535956098, "alt_km": 815.4425915801357, "timestamp": "2025-12-21T20:41:08.243576+00:00", "meta": {"OBJECT_NAME": "FENGYUN 1C DEB", "OBJECT_ID": "1999-025CAY", "EPOCH": "2025-12-21T00:03:47.898144", "MEAN_MOTION": 14.33417996, "ECCENTRICITY": 0.01194013, "INCLINATION": 98.5037, "RA_OF_ASC_NODE": 77.0589, "ARG_OF_PERICENTER": 231.7986, "MEAN_ANOMALY": 127.2399, "EPHEMERIS_TYPE": 0, "CLASSIFICATION_TYPE": "U", "NORAD_CAT_ID": 31642, "ELEMENT_SET_NO": 999, "REV_AT_EPOCH": 97137, "BSTAR": 0.000268567, "MEAN_MOTION_DOT": 7.56e-06, "MEAN_MOTION_DDOT": 0}, "tle": {"line1": "1 31642U 99025CAY 25355.00263771  .00000756  00000+0  26857-3 0  9995", "line2": "2 31642  98.5037  77.0589 0119401 231.7986 127.2399 14.33417996971375"}}, "geometry": {"type": "Point", "coordinates": [-79.30495535956098, 68.88276404255836]}}, {"type": "Feature", "properties": {"norad_id": 31644, "name": "FENGYUN 1C DEB", "group": "fengyun-1c-debris", "lat": 74.55034309892217, "lon": 99.76494343050588, "alt_km": 592.1211107486324, "timestamp": "2025-12-21T20:41:08.243585+00:00", "meta": {"OBJECT_NAME": "FENGYUN 1C DEB", "OBJECT_ID": "1999-025CBA", "EPOCH": "2025-12-21T11:11:49.782624", "MEAN_MOTION": 14.67981563, "ECCENTRICITY": 0.01545239, "INCLINATION": 98.671, "RA_OF_ASC_NODE": 245.8309, "ARG_OF_PERICENTER": 155.9147, "MEAN_ANOMALY": 20.174, "EPHEMERIS_TYPE": 0, "CLASSIFICATION_TYPE": "U", "NORAD_CAT_ID": 31644, "ELEMENT_SET_NO": 999, "REV_AT_EPOCH": 71172, "BSTAR": 0.00053628106, "MEAN_MOTION_DOT": 3.619e-05, "MEAN_MOTION_DDOT": 0}, "tle": {"line1": "1 31644U 99025CBA 25355.46654841  .00003619  00000+0  53628-3 0  9996", "line2": "2 31644  98.6710 245.8309 0154523 155.9147  20.1740 14.67981563711726"}}, "geometry": {"type": "Point", "coordinates": [99.76494343050588, 74.55034309892217]}}, {"type": "Feature", "properties": {"norad_id": 31646, "name": "FENGYUN 1C DEB", "group": "fengyun-1c-debris", "lat": -45.3313318617089, "lon": 27.520486390354872, "alt_km": 866.1194888231339, "timestamp": "2025-12-21T20:41:08.243594+00:00", "meta": {"OBJECT_NAME": "FENGYUN 1C DEB", "OBJECT_ID": "1999-025CBC", "EPOCH": "2025-12-21T07:19:09.381216", "MEAN_MOTION": 14.14149392, "ECCENTRICITY": 0.0033475, "INCLINATION": 98.6892, "RA_OF_ASC_NODE": 18.0793, "ARG_OF_PERICENTER": 189.484, "MEAN_ANOMALY": 170.5705, "EPHEMERIS_TYPE": 0, "CLASSIFICATION_TYPE": "U", "NORAD_CAT_ID": 31646, "ELEMENT_SET_NO": 999, "REV_AT_EPOCH": 63312, "BSTAR": 0.00039452, "MEAN_MOTION_DOT": 7.13e-06, "MEAN_MOTION_DDOT": 0}, "tle": {"line1": "1 31646U 99025CBC 25355.30496969  .00000713  00000+0  39452-3 0  9997", "line2": "2 31646  98.6892  18.0793 0033475 189.4840 170.5705 14.14149392633126"}}, "geometry": {"type": "Point", "coordinates": [27.520486390354872, -45.3313318617089]}}, {"type": "Feature", "properties": {"norad_id": 31655, "name": "FENGYUN 1C DEB", "group": "fengyun-1c-debris", "lat": -76.42571250422466, "lon": -15.982088379646735, "alt_km": 1235.9849118023612, "timestamp": "2025-12-21T20:41:08.243603+00:00", "meta": {"OBJECT_NAME": "FENGYUN 1C DEB", "OBJECT_ID": "1999-025CBM", "EPOCH": "2025-12-18T03:23:30.784128", "MEAN_MOTION": 13.63899091, "ECCENTRICITY": 0.02895123, "INCLINATION": 99.287, "RA_OF_ASC_NODE": 297.7987, "ARG_OF_PERICENTER": 123.8474, "MEAN_ANOMALY": 256.5843, "EPHEMERIS_TYPE": 0, "CLASSIFICATION_TYPE": "U", "NORAD_CAT_ID": 31655, "ELEMENT_SET_NO": 999, "REV_AT_EPOCH": 59793, "BSTAR": 0.0027503966, "MEAN_MOTION_DOT": 2.864e-05, "MEAN_MOTION_DDOT": 0}, "tle": {"line1": "1 31655U 99025CBM 25352.14132852  .00002864  00000+0  27504-2 0  9997", "line2": "2 31655  99.2870 297.7987 0289512 123.8474 256.5843 13.63899091597937"}}, "geometry": {"type": "Point", "coordinates": [-15.982088379646735, -76.42571250422466]}}, {"type": "Feature", "properties": {"norad_id": 31656, "name": "FENGYUN 1C DEB", "group": "fengyun-1c-debris", "lat": -70.76302391631856, "lon": 137.77401483349124, "alt_km": 753.3643031401434, "timestamp": "2025-12-21T20:41:08.243612+00:00", "meta": {"OBJECT_NAME": "FENGYUN 1C DEB", "OBJECT_ID": "1999-025CBN", "EPOCH": "2025-12-20T05:26:14.212032", "MEAN_MOTION": 14.47119501, "ECCENTRICITY": 0.0022708, "INCLINATION": 99.1923, "RA_OF_ASC_NODE": 343.648, "ARG_OF_PERICENTER": 31.3504, "MEAN_ANOMALY": 347.0761, "EPHEMERIS_TYPE": 0, "CLASSIFICATION_TYPE": "U", "NORAD_CAT_ID": 31656, "ELEMENT_SET_NO": 999, "REV_AT_EPOCH": 96564, "BSTAR": 0.0014361, "MEAN_MOTION_DOT": 5.205e-05, "MEAN_MOTION_DDOT": 0}, "tle": {"line1": "1 31656U 99025CBN 25354.22655338  .00005205  00000+0  14361-2 0  9997", "line2": "2 31656  99.1923 343.6480 0022708  31.3504 347.0761 14.47119501965640"}}, "geometry": {"type": "Point", "coordinates": [137.77401483349124, -70.76302391631856]}}, {"type": "Feature", "properties": {"norad_id": 31657, "name": "FENGYUN 1C DEB", "group": "fengyun-1c-debris", "lat": -76.98239188690512, "lon": 13.654076334680251, "alt_km": 973.6583112009439, "timestamp": "2025-12-21T20:41:08.243621+00:00", "meta": {"OBJECT_NAME": "FENGYUN 1C DEB", "OBJECT_ID": "1999-025CBP", "EPOCH": "2025-12-15T00:08:35.623968", "MEAN_MOTION": 13.97064465, "ECCENTRICITY": 0.01478678, "INCLINATION": 102.2166, "RA_OF_ASC_NODE": 254.1396, "ARG_OF_PERICENTER": 48.4638, "MEAN_ANOMALY": 312.9088, "EPHEMERIS_TYPE": 0, "CLASSIFICATION_TYPE": "U", "NORAD_CAT_ID": 31657, "ELEMENT_SET_NO": 999, "REV_AT_EPOCH": 62896, "BSTAR": 0.0027457393, "MEAN_MOTION_DOT": 4.139e-05, "MEAN_MOTION_DDOT": 0}, "tle": {"line1": "1 31657U 99025CBP 25349.00596787  .00004139  00000+0  27457-2 0  9995", "line2": "2 31657 102.2166 254.1396 0147867  48.4638 312.9088 13.97064465628965"}}, "geometry": {"type": "Point", "coordinates": [13.654076334680251, -76.98239188690512]}}]}